IRIDIUM 171             
1 43929U 19002H   24283.45414881  .00000103  00000+0  29734-4 0  9995
2 43929  86.3945 251.0812 0002706  85.6770 274.4735 14.34216760300707
IRIDIUM 170             
1 43930U 19002J   24283.44572296  .00005257  00000+0  82933-3 0  9995
2 43930  86.6066 250.8838 0003181  73.2439 286.9127 14.72253647308667
IRIDIUM 167             
1 43931U 19002K   24283.44780468  .00000249  00000+0  81864-4 0  9997
2 43931  86.3936 250.8629 0002654  89.8358 270.3142 14.34214333300704
IRIDIUM 181             
1 56726U 23068S   24283.54873605  .00001454  00000+0  42376-3 0  9990
2 56726  86.8600 310.1511 0002577  92.3611 267.7886 14.43588048 73639
IRIDIUM 177             
1 56727U 23068T   24283.47197815  .00000908  00000+0  11600-3 0  9994
2 56727  86.1939 261.0714 0002732 104.5986 255.5537 14.80232819 75285
IRIDIUM 174             
1 56728U 23068U   24283.46681388  .00002946  00000+0  38394-3 0  9990
2 56728  86.1939 261.1877 0002747  97.6799 262.4734 14.80264238 75283
IRIDIUM 178             
1 56729U 23068V   24283.52869322  .00002355  00000+0  30652-3 0  9997
2 56729  86.5722 284.0555 0002579  89.3810 270.7707 14.80222652 75297
IRIDIUM 179             
1 56730U 23068W   24283.52327069  .00002331  00000+0  30337-3 0  9990
2 56730  86.6735 289.6376 0002507  99.1580 260.9926 14.80223296 75299
